[{"OBJECT_NAME":"STARLINK-1039","OBJECT_ID":"2019-074AH","EPOCH":"2026-03-09T14:46:14.325312","MEAN_MOTION":15.21697508,"ECCENTRICITY":0.000318,"INCLINATION":53.0506,"RA_OF_ASC_NODE":215.4382,"ARG_OF_PERICENTER":172.5659,"MEAN_ANOMALY":187.5385,"EPHEMERIS_TYPE":0,"CLASSIFICATION_TYPE":"U","NORAD_CAT_ID":44744,"ELEMENT_SET_NO":999,"REV_AT_EPOCH":34834,"BSTAR":0.0027625,"MEAN_MOTION_DOT":0.00063546,"MEAN_MOTION_DDOT":0},{"OBJECT_NAME":"STARLINK-1526","OBJECT_ID":"2020-055C","EPOCH":"2026-03-10T00:00:02.999808","MEAN_MOTION":15.19094638,"ECCENTRICITY":8.938e-5,"INCLINATION":53.1067,"RA_OF_ASC_NODE":124.7929,"ARG_OF_PERICENTER":56.7447,"MEAN_ANOMALY":353.5398,"EPHEMERIS_TYPE":0,"CLASSIFICATION_TYPE":"U","NORAD_CAT_ID":46029,"ELEMENT_SET_NO":999,"REV_AT_EPOCH":569,"BSTAR":0.0056326704,"MEAN_MOTION_DOT":0.00121352,"MEAN_MOTION_DDOT":0}]
